[{"OBJECT_NAME":"ONEWEB-0450","OBJECT_ID":"2021-132AM","EPOCH":"2026-03-09T17:09:03.567168","MEAN_MOTION":13.18686652,"ECCENTRICITY":0.00019502,"INCLINATION":87.9243,"RA_OF_ASC_NODE":355.2212,"ARG_OF_PERICENTER":86.486,"MEAN_ANOMALY":273.6495,"EPHEMERIS_TYPE":0,"CLASSIFICATION_TYPE":"U","NORAD_CAT_ID":50504,"ELEMENT_SET_NO":999,"REV_AT_EPOCH":20849,"BSTAR":0.00020393995,"MEAN_MOTION_DOT":9.3e-7,"MEAN_MOTION_DDOT":0},{"OBJECT_NAME":"DELTA 1 DEB","OBJECT_ID":"1975-052HM","EPOCH":"2026-03-09T23:16:56.527680","MEAN_MOTION":13.62520452,"ECCENTRICITY":0.02445771,"INCLINATION":99.8448,"RA_OF_ASC_NODE":235.7045,"ARG_OF_PERICENTER":123.3093,"MEAN_ANOMALY":27.386,"EPHEMERIS_TYPE":0,"CLASSIFICATION_TYPE":"U","NORAD_CAT_ID":21567,"ELEMENT_SET_NO":999,"REV_AT_EPOCH":72260,"BSTAR":0.001115498,"MEAN_MOTION_DOT":1.015e-5,"MEAN_MOTION_DDOT":0}]
